[{"OBJECT_NAME":"QIANFAN-35","OBJECT_ID":"2024-185S","EPOCH":"2026-03-05T17:32:47.751936","MEAN_MOTION":14.28119351,"ECCENTRICITY":0.0007468,"INCLINATION":88.9745,"RA_OF_ASC_NODE":67.1181,"ARG_OF_PERICENTER":31.8595,"MEAN_ANOMALY":328.305,"EPHEMERIS_TYPE":0,"CLASSIFICATION_TYPE":"U","NORAD_CAT_ID":61568,"ELEMENT_SET_NO":999,"REV_AT_EPOCH":8202,"BSTAR":0.00047361,"MEAN_MOTION_DOT":1.192e-5,"MEAN_MOTION_DDOT":0},{"OBJECT_NAME":"QIANFAN-36","OBJECT_ID":"2024-185T","EPOCH":"2026-03-05T18:43:28.303680","MEAN_MOTION":13.55613754,"ECCENTRICITY":0.0007016,"INCLINATION":88.9717,"RA_OF_ASC_NODE":72.3778,"ARG_OF_PERICENTER":145.9172,"MEAN_ANOMALY":214.2433,"EPHEMERIS_TYPE":0,"CLASSIFICATION_TYPE":"U","NORAD_CAT_ID":61569,"ELEMENT_SET_NO":999,"REV_AT_EPOCH":7917,"BSTAR":0.00015814,"MEAN_MOTION_DOT":1.22e-6,"MEAN_MOTION_DDOT":0},{"OBJECT_NAME":"QIANFAN-37","OBJECT_ID":"2024-232B","EPOCH":"2026-03-05T17:19:31.620864","MEAN_MOTION":13.51005341,"ECCENTRICITY":0.0001721,"INCLINATION":89.0052,"RA_OF_ASC_NODE":32.9473,"ARG_OF_PERICENTER":97.0544,"MEAN_ANOMALY":263.0803,"EPHEMERIS_TYPE":0,"CLASSIFICATION_TYPE":"U","NORAD_CAT_ID":62238,"ELEMENT_SET_NO":999,"REV_AT_EPOCH":11037,"BSTAR":0.00012217,"MEAN_MOTION_DOT":9.1e-7,"MEAN_MOTION_DDOT":0},{"OBJECT_NAME":"QIANFAN-38","OBJECT_ID":"2024-232C","EPOCH":"2026-03-05T17:55:00.249024","MEAN_MOTION":13.51003917,"ECCENTRICITY":0.0013411,"INCLINATION":89.0059,"RA_OF_ASC_NODE":32.8663,"ARG_OF_PERICENTER":322.9544,"MEAN_ANOMALY":37.068,"EPHEMERIS_TYPE":0,"CLASSIFICATION_TYPE":"U","NORAD_CAT_ID":62239,"ELEMENT_SET_NO":999,"REV_AT_EPOCH":11043,"BSTAR":0.00011824,"MEAN_MOTION_DOT":8.8e-7,"MEAN_MOTION_DDOT":0},{"OBJECT_NAME":"QIANFAN-39","OBJECT_ID":"2024-232D","EPOCH":"2026-03-05T18:01:10.652736","MEAN_MOTION":14.254367,"ECCENTRICITY":0.0016586,"INCLINATION":89.0057,"RA_OF_ASC_NODE":27.8127,"ARG_OF_PERICENTER":158.5793,"MEAN_ANOMALY":201.6097,"EPHEMERIS_TYPE":0,"CLASSIFICATION_TYPE":"U","NORAD_CAT_ID":62240,"ELEMENT_SET_NO":999,"REV_AT_EPOCH":11321,"BSTAR":0.00022068,"MEAN_MOTION_DOT":5.36e-6,"MEAN_MOTION_DDOT":0},{"OBJECT_NAME":"QIANFAN-40","OBJECT_ID":"2024-232E","EPOCH":"2026-03-05T16:55:45.106752","MEAN_MOTION":13.51003106,"ECCENTRICITY":0.0012725,"INCLINATION":89.0087,"RA_OF_ASC_NODE":32.4782,"ARG_OF_PERICENTER":332.2195,"MEAN_ANOMALY":27.8276,"EPHEMERIS_TYPE":0,"CLASSIFICATION_TYPE":"U","NORAD_CAT_ID":62241,"ELEMENT_SET_NO":999,"REV_AT_EPOCH":11079,"BSTAR":0.00011905,"MEAN_MOTION_DOT":8.9e-7,"MEAN_MOTION_DDOT":0},{"OBJECT_NAME":"QIANFAN-41","OBJECT_ID":"2024-232F","EPOCH":"2026-03-05T17:07:39.739296","MEAN_MOTION":13.51004804,"ECCENTRICITY":0.0012709,"INCLINATION":89.0057,"RA_OF_ASC_NODE":32.8197,"ARG_OF_PERICENTER":319.1345,"MEAN_ANOMALY":40.8852,"EPHEMERIS_TYPE":0,"CLASSIFICATION_TYPE":"U","NORAD_CAT_ID":62242,"ELEMENT_SET_NO":999,"REV_AT_EPOCH":11045,"BSTAR":0.00013277,"MEAN_MOTION_DOT":9.8e-7,"MEAN_MOTION_DDOT":0},{"OBJECT_NAME":"QIANFAN-42","OBJECT_ID":"2024-232G","EPOCH":"2026-03-05T17:33:13.078368","MEAN_MOTION":14.24530564,"ECCENTRICITY":0.00152,"INCLINATION":89.0055,"RA_OF_ASC_NODE":27.8744,"ARG_OF_PERICENTER":164.0545,"MEAN_ANOMALY":196.1129,"EPHEMERIS_TYPE":0,"CLASSIFICATION_TYPE":"U","NORAD_CAT_ID":62243,"ELEMENT_SET_NO":999,"REV_AT_EPOCH":11318,"BSTAR":0.00021409,"MEAN_MOTION_DOT":5.11e-6,"MEAN_MOTION_DDOT":0},{"OBJECT_NAME":"QIANFAN-43","OBJECT_ID":"2024-232H","EPOCH":"2026-03-05T17:01:40.615104","MEAN_MOTION":13.51004823,"ECCENTRICITY":0.001438,"INCLINATION":89.0061,"RA_OF_ASC_NODE":32.8891,"ARG_OF_PERICENTER":323.9745,"MEAN_ANOMALY":36.0436,"EPHEMERIS_TYPE":0,"CLASSIFICATION_TYPE":"U","NORAD_CAT_ID":62244,"ELEMENT_SET_NO":999,"REV_AT_EPOCH":7906,"BSTAR":0.00012911,"MEAN_MOTION_DOT":9.5e-7,"MEAN_MOTION_DDOT":0},{"OBJECT_NAME":"QIANFAN-44","OBJECT_ID":"2024-232J","EPOCH":"2026-03-05T16:43:54.910848","MEAN_MOTION":13.51002745,"ECCENTRICITY":0.0012522,"INCLINATION":89.006,"RA_OF_ASC_NODE":32.6998,"ARG_OF_PERICENTER":321.8008,"MEAN_ANOMALY":38.2255,"EPHEMERIS_TYPE":0,"CLASSIFICATION_TYPE":"U","NORAD_CAT_ID":62245,"ELEMENT_SET_NO":999,"REV_AT_EPOCH":11053,"BSTAR":0.00010578,"MEAN_MOTION_DOT":8.0e-7,"MEAN_MOTION_DDOT":0},{"OBJECT_NAME":"QIANFAN-45","OBJECT_ID":"2024-232K","EPOCH":"2026-03-05T17:43:12.385920","MEAN_MOTION":13.51000427,"ECCENTRICITY":0.0013165,"INCLINATION":89.0064,"RA_OF_ASC_NODE":32.8451,"ARG_OF_PERICENTER":320.8728,"MEAN_ANOMALY":39.147,"EPHEMERIS_TYPE":0,"CLASSIFICATION_TYPE":"U","NORAD_CAT_ID":62246,"ELEMENT_SET_NO":999,"REV_AT_EPOCH":11046,"BSTAR":9.7046e-5,"MEAN_MOTION_DOT":7.5e-7,"MEAN_MOTION_DDOT":0},{"OBJECT_NAME":"QIANFAN-46","OBJECT_ID":"2024-232L","EPOCH":"2026-03-05T18:18:41.707872","MEAN_MOTION":13.51003418,"ECCENTRICITY":0.0013397,"INCLINATION":89.0059,"RA_OF_ASC_NODE":32.9081,"ARG_OF_PERICENTER":326.7427,"MEAN_ANOMALY":33.2881,"EPHEMERIS_TYPE":0,"CLASSIFICATION_TYPE":"U","NORAD_CAT_ID":62247,"ELEMENT_SET_NO":999,"REV_AT_EPOCH":11042,"BSTAR":0.00012531,"MEAN_MOTION_DOT":9.3e-7,"MEAN_MOTION_DDOT":0},{"OBJECT_NAME":"QIANFAN-47","OBJECT_ID":"2024-232M","EPOCH":"2026-03-05T18:24:36.963072","MEAN_MOTION":13.51003254,"ECCENTRICITY":0.0013788,"INCLINATION":89.0055,"RA_OF_ASC_NODE":32.8374,"ARG_OF_PERICENTER":325.5581,"MEAN_ANOMALY":34.4675,"EPHEMERIS_TYPE":0,"CLASSIFICATION_TYPE":"U","NORAD_CAT_ID":62248,"ELEMENT_SET_NO":999,"REV_AT_EPOCH":11045,"BSTAR":9.8829e-5,"MEAN_MOTION_DOT":7.6e-7,"MEAN_MOTION_DDOT":0},{"OBJECT_NAME":"QIANFAN-48","OBJECT_ID":"2024-232N","EPOCH":"2026-03-05T17:31:18.125760","MEAN_MOTION":13.51003449,"ECCENTRICITY":0.0016121,"INCLINATION":89.0059,"RA_OF_ASC_NODE":32.8463,"ARG_OF_PERICENTER":327.4231,"MEAN_ANOMALY":32.5924,"EPHEMERIS_TYPE":0,"CLASSIFICATION_TYPE":"U","NORAD_CAT_ID":62249,"ELEMENT_SET_NO":999,"REV_AT_EPOCH":11045,"BSTAR":0.00011018,"MEAN_MOTION_DOT":8.3e-7,"MEAN_MOTION_DDOT":0},{"OBJECT_NAME":"QIANFAN-49","OBJECT_ID":"2024-232P","EPOCH":"2026-03-05T15:26:52.941120","MEAN_MOTION":13.51002535,"ECCENTRICITY":0.0013048,"INCLINATION":89.0058,"RA_OF_ASC_NODE":32.8668,"ARG_OF_PERICENTER":323.2939,"MEAN_ANOMALY":36.7317,"EPHEMERIS_TYPE":0,"CLASSIFICATION_TYPE":"U","NORAD_CAT_ID":62250,"ELEMENT_SET_NO":999,"REV_AT_EPOCH":7903,"BSTAR":0.00010035,"MEAN_MOTION_DOT":7.7e-7,"MEAN_MOTION_DDOT":0},{"OBJECT_NAME":"QIANFAN-50","OBJECT_ID":"2024-232Q","EPOCH":"2026-03-05T17:49:03.920736","MEAN_MOTION":13.5100352,"ECCENTRICITY":0.0014726,"INCLINATION":89.0064,"RA_OF_ASC_NODE":32.8695,"ARG_OF_PERICENTER":323.6224,"MEAN_ANOMALY":36.3925,"EPHEMERIS_TYPE":0,"CLASSIFICATION_TYPE":"U","NORAD_CAT_ID":62251,"ELEMENT_SET_NO":999,"REV_AT_EPOCH":7907,"BSTAR":0.00011917,"MEAN_MOTION_DOT":8.9e-7,"MEAN_MOTION_DDOT":0},{"OBJECT_NAME":"QIANFAN-51","OBJECT_ID":"2024-232R","EPOCH":"2026-03-05T17:25:24.682368","MEAN_MOTION":13.51004302,"ECCENTRICITY":0.0012365,"INCLINATION":89.0058,"RA_OF_ASC_NODE":32.8599,"ARG_OF_PERICENTER":329.0013,"MEAN_ANOMALY":31.0407,"EPHEMERIS_TYPE":0,"CLASSIFICATION_TYPE":"U","NORAD_CAT_ID":62252,"ELEMENT_SET_NO":999,"REV_AT_EPOCH":7906,"BSTAR":0.00010344,"MEAN_MOTION_DOT":7.9e-7,"MEAN_MOTION_DDOT":0}]
