QIANFAN-35              
1 61568U 24185S   26064.73110824  .00001192  00000+0  47361-3 0  9996
2 61568  88.9745  67.1181 0007468  31.8595 328.3050 14.28119351 82027
QIANFAN-36              
1 61569U 24185T   26064.78018870  .00000122  00000+0  15814-3 0  9990
2 61569  88.9717  72.3778 0007016 145.9172 214.2433 13.55613754 79179
QIANFAN-37              
1 62238U 24232B   26064.72189376  .00000091  00000+0  12217-3 0  9990
2 62238  89.0052  32.9473 0001721  97.0544 263.0803 13.51005341110372
QIANFAN-38              
1 62239U 24232C   26064.74653066  .00000088  00000+0  11824-3 0  9994
2 62239  89.0059  32.8663 0013411 322.9544  37.0680 13.51003917110435
QIANFAN-39              
1 62240U 24232D   26064.75081774  .00000536  00000+0  22068-3 0  9998
2 62240  89.0057  27.8127 0016586 158.5793 201.6097 14.25436700113211
QIANFAN-40              
1 62241U 24232E   26064.70538318  .00000089  00000+0  11905-3 0  9996
2 62241  89.0087  32.4782 0012725 332.2195  27.8276 13.51003106110797
QIANFAN-41              
1 62242U 24232F   26064.71365439  .00000098  00000+0  13277-3 0  9994
2 62242  89.0057  32.8197 0012709 319.1345  40.8852 13.51004804110456
QIANFAN-42              
1 62243U 24232G   26064.73140137  .00000511  00000+0  21409-3 0  9999
2 62243  89.0055  27.8744 0015200 164.0545 196.1129 14.24530564113188
QIANFAN-43              
1 62244U 24232H   26064.70949786  .00000095  00000+0  12911-3 0  9999
2 62244  89.0061  32.8891 0014380 323.9745  36.0436 13.51004823 79065
QIANFAN-44              
1 62245U 24232J   26064.69716332  .00000080  00000+0  10578-3 0  9998
2 62245  89.0060  32.6998 0012522 321.8008  38.2255 13.51002745110538
QIANFAN-45              
1 62246U 24232K   26064.73833780  .00000075  00000+0  97046-4 0  9991
2 62246  89.0064  32.8451 0013165 320.8728  39.1470 13.51000427110467
QIANFAN-46              
1 62247U 24232L   26064.76298273  .00000093  00000+0  12531-3 0  9992
2 62247  89.0059  32.9081 0013397 326.7427  33.2881 13.51003418110420
QIANFAN-47              
1 62248U 24232M   26064.76709448  .00000076  00000+0  98829-4 0  9990
2 62248  89.0055  32.8374 0013788 325.5581  34.4675 13.51003254110458
QIANFAN-48              
1 62249U 24232N   26064.73007090  .00000083  00000+0  11018-3 0  9994
2 62249  89.0059  32.8463 0016121 327.4231  32.5924 13.51003449110451
QIANFAN-49              
1 62250U 24232P   26064.64366830  .00000077  00000+0  10035-3 0  9997
2 62250  89.0058  32.8668 0013048 323.2939  36.7317 13.51002535 79038
QIANFAN-50              
1 62251U 24232Q   26064.74240649  .00000089  00000+0  11917-3 0  9991
2 62251  89.0064  32.8695 0014726 323.6224  36.3925 13.51003520 79071
QIANFAN-51              
1 62252U 24232R   26064.72598012  .00000079  00000+0  10344-3 0  9992
2 62252  89.0058  32.8599 0012365 329.0013  31.0407 13.51004302 79066
